NORAD_CAT_ID,OBJECT_NAME,OBJECT_TYPE,EPOCH,MEAN_MOTION,ECCENTRICITY,INCLINATION,RA_OF_ASC_NODE,ARG_OF_PERICENTER,MEAN_ANOMALY,BSTAR,MEAN_MOTION_DOT,MEAN_MOTION_DDOT,TLE_LINE0,TLE_LINE1,TLE_LINE2,SEMIMAJOR_AXIS,PERIOD,APOGEE,PERIGEE,DECAYED
51794.0,STARLINK-3573,PAYLOAD,2022-03-18 20:00:01,15.73242764,0.0001329,53.2178,38.7121,88.1301,99.4845,9.7822e-05,0.00013155,0.0,0 STARLINK-3573,1 51794U 22017AC  22077.83334491  .00013155  00000-0  97822-4 0  9998,2 51794  53.2178  38.7121 0001329  88.1301  99.4845 15.73242764  4567,6727.773,91.531,350.532,348.744,0.0
51794.0,STARLINK-3573,PAYLOAD,2022-03-18 22:00:00,15.73277708,0.0001330999999999,53.2181,38.3001,87.5966,212.2529,-0.00041106,-0.00058104,0.0,0 STARLINK-3573,1 51794U 22017AC  22077.91667824 -.00058104  00000-0 -41106-3 0  9994,2 51794  53.2181  38.3001 0001331  87.5966 212.2529 15.73277708  3724,6727.674,91.529,350.434,348.64300000000014,0.0
51794.0,STARLINK-3573,PAYLOAD,2022-03-19 02:00:01,15.73277031,0.0001359,53.2179,37.4764,81.1185,83.2996,-0.00090063,-0.00125562,0.0,0 STARLINK-3573,1 51794U 22017AC  22078.08335648 -.00125562  00000-0 -90063-3 0  9998,2 51794  53.2179  37.4764 0001359  81.1185  83.2996 15.73277031  4601,6727.676,91.529,350.455,348.626,0.0
51794.0,STARLINK-3573,PAYLOAD,2022-03-19 14:00:01,15.73178593,0.000102,53.218,34.9986,80.8965,36.8562,-0.0004003,-0.0005637,0.0,0 STARLINK-3573,1 51794U 22017AC  22078.58334491 -.00056370  00000-0 -40030-3 0  9997,2 51794  53.2180  34.9986 0001020  80.8965  36.8562 15.73178593  3704,6727.956,91.534,350.50699999999995,349.135,0.0
51794.0,STARLINK-3573,PAYLOAD,2022-03-19 20:00:01,15.73242683,0.0001037,53.2177,33.7575,81.4672,12.9279,-0.0019602,-0.00267628,0.0,0 STARLINK-3573,1 51794U 22017AC  22078.83334491 -.00267628  00000-0 -19602-2 0  9995,2 51794  53.2177  33.7575 0001037  81.4672  12.9279 15.73242683  4726,6727.773,91.531,350.336,348.941,0.0
51794.0,STARLINK-3573,PAYLOAD,2022-03-19 22:00:01,15.73244442,0.0001039,53.2179,33.3445,85.649,121.0313,-0.0025671,-0.00347072,0.0,0 STARLINK-3573,1 51794U 22017AC  22078.91668981 -.00347072  00000-0 -25671-2 0  9993,2 51794  53.2179  33.3445 0001039  85.6490 121.0313 15.73244442  3721,6727.768,91.531,350.332,348.934,0.0
51794.0,STARLINK-3573,PAYLOAD,2022-03-20 04:00:00,15.73127076,0.0001186,53.2178,32.1074,77.9741,105.2826,-0.0038315,-0.00505635,0.0,0 STARLINK-3573,1 51794U 22017AC  22079.16667824 -.00505635  00000-0 -38315-2 0  9996,2 51794  53.2178  32.1074 0001186  77.9741 105.2826 15.73127076  4773,6728.103,91.537,350.766,349.17,0.0
51794.0,STARLINK-3573,PAYLOAD,2022-03-20 12:00:00,15.72773,0.0001095999999999,53.2174,30.4576,92.2904,179.6024,-0.0056986999999999,-0.00721719,0.0,0 STARLINK-3573,1 51794U 22017AC  22079.50001157 -.00721719  00000-0 -56987-2 0  9993,2 51794  53.2174  30.4576 0001096  92.2904 179.6024 15.72773000  4822,6729.113,91.558,351.715,350.24,0.0
51794.0,STARLINK-3573,PAYLOAD,2022-03-20 14:00:01,15.72643794,9.72e-05,53.2176,30.0457,91.3983,292.5783,-0.0057033,-0.0071855,0.0,0 STARLINK-3573,1 51794U 22017AC  22079.58334491 -.00718550  00000-0 -57033-2 0  9993,2 51794  53.2176  30.0457 0000972  91.3983 292.5783 15.72643794  3694,6729.481,91.566,352.001,350.69199999999995,0.0
51794.0,STARLINK-3573,PAYLOAD,2022-03-20 22:00:01,15.72133357,0.000111,53.2177,28.4001,76.1446,35.8443,-0.0058188,-0.00717384,0.0,0 STARLINK-3573,1 51794U 22017AC  22079.91668981 -.00717384  00000-0 -58188-2 0  9990,2 51794  53.2177  28.4001 0001110  76.1446  35.8443 15.72133357  3714,6730.938,91.595,353.55,352.056,0.0
51794.0,STARLINK-3573,PAYLOAD,2022-03-21 12:00:00,15.71242874,0.000115,53.2173,25.5246,85.1687,89.1861,-0.0060769,-0.00721039,0.0,0 STARLINK-3573,1 51794U 22017AC  22080.50001157 -.00721039  00000-0 -60769-2 0  9993,2 51794  53.2173  25.5246 0001150  85.1687  89.1861 15.71242874  4980,6733.481,91.647,356.12,354.571,0.0
51794.0,STARLINK-3573,PAYLOAD,2022-03-21 14:00:01,15.71115881,0.0001095999999999,53.2175,25.1136,96.0795,189.8982,-0.0061153,-0.00721638,0.0,0 STARLINK-3573,1 51794U 22017AC  22080.58334491 -.00721638  00000-0 -61153-2 0  9994,2 51794  53.2175  25.1136 0001096  96.0795 189.8982 15.71115881  3692,6733.844,91.655,356.44699999999995,354.971,0.0
51794.0,STARLINK-3573,PAYLOAD,2022-03-21 22:00:00,15.70605191,0.000102,53.2177,23.4719,82.8699,289.2165,-0.0062321,-0.00719867,0.0,0 STARLINK-3573,1 51794U 22017AC  22080.91667824 -.00719867  00000-0 -62321-2 0  9999,2 51794  53.2177  23.4719 0001020  82.8699 289.2165 15.70605191  3690,6735.303000000001,91.684,357.855,356.481,0.0
51794.0,STARLINK-3573,PAYLOAD,2022-03-22 12:00:00,15.6971205,0.0001034,53.2175,20.6027,80.4656,350.836,-0.0064581999999999,-0.0071864999999999,0.0,0 STARLINK-3573,1 51794U 22017AC  22081.50001157 -.00718650  00000-0 -64582-2 0  9996,2 51794  53.2175  20.6027 0001034  80.4656 350.8360 15.69712050  5146,6737.858,91.737,360.42,359.026,0.0
51794.0,STARLINK-3573,PAYLOAD,2022-03-22 14:00:01,15.69584077,0.0001163,53.2177,20.1925,85.3174,97.1481,-0.0064834,-0.00717717,0.0,0 STARLINK-3573,1 51794U 22017AC  22081.58334491 -.00717717  00000-0 -64834-2 0  9997,2 51794  53.2177  20.1925 0001163  85.3174  97.1481 15.69584077  3703,6738.224,91.744,360.87300000000016,359.305,0.0
51794.0,STARLINK-3573,PAYLOAD,2022-03-22 22:00:01,15.6907432,0.0001162,53.2178,18.5549,87.5084,179.2924,-0.0066244,-0.00717902,0.0,0 STARLINK-3573,1 51794U 22017AC  22081.91668981 -.00717902  00000-0 -66244-2 0  9991,2 51794  53.2178  18.5549 0001162  87.5084 179.2924 15.69074320  3709,6739.683000000001,91.774,362.332,360.765,0.0
51794.0,STARLINK-3573,PAYLOAD,2022-03-23 12:00:00,15.68182641,0.0001052,53.2174,15.6921,90.9865,231.7467,-0.0068898,-0.00719444,0.0,0 STARLINK-3573,1 51794U 22017AC  22082.50001157 -.00719444  00000-0 -68898-2 0  9993,2 51794  53.2174  15.6921 0001052  90.9865 231.7467 15.68182641  5309,6742.238,91.826,364.812,363.394,0.0
51794.0,STARLINK-3573,PAYLOAD,2022-03-23 14:00:01,15.68052614,0.0001002,53.2175,15.283,84.6292,348.8087,-0.0068791,-0.00714876,0.0,0 STARLINK-3573,1 51794U 22017AC  22082.58334491 -.00714876  00000-0 -68791-2 0  9997,2 51794  53.2175  15.2830 0001002  84.6292 348.8087 15.68052614  3698,6742.611,91.834,365.151,363.8,0.0
51794.0,STARLINK-3573,PAYLOAD,2022-03-23 22:00:00,15.67543807,0.000119,53.2175,13.6491,79.2101,76.6591,-0.0070435,-0.00716695,0.0,0 STARLINK-3573,1 51794U 22017AC  22082.91667824 -.00716695  00000-0 -70435-2 0  9992,2 51794  53.2175  13.6491 0001190  79.2101  76.6591 15.67543807  3706,6744.07,91.863,366.737,365.132,0.0
51794.0,STARLINK-3573,PAYLOAD,2022-03-24 14:00:01,15.66523436,0.0001055,53.2177,10.3844,84.9844,233.9103,-0.0073358,-0.00716012,0.0,0 STARLINK-3573,1 51794U 22017AC  22083.58334491 -.00716012  00000-0 -73358-2 0  9997,2 51794  53.2177  10.3844 0001055  84.9844 233.9103 15.66523436  3680,6746.998000000001,91.923,369.575,368.151,0.0
51794.0,STARLINK-3573,PAYLOAD,2022-03-24 22:00:00,15.66015518,0.0001044,53.2178,8.7546,76.3143,323.1727,-0.0075254999999999,-0.00719261,0.0,0 STARLINK-3573,1 51794U 22017AC  22083.91667824 -.00719261  00000-0 -75255-2 0  9990,2 51794  53.2178   8.7546 0001044  76.3143 323.1727 15.66015518  5522,6748.456999999999,91.953,371.026,369.617,0.0
51794.0,STARLINK-3573,PAYLOAD,2022-03-25 14:00:01,15.64992743,0.0001169,53.2174,5.4969,87.1221,111.7146,-0.0077775,-0.00713839,0.0,0 STARLINK-3573,1 51794U 22017AC  22084.58334491 -.00713839  00000-0 -77775-2 0  9999,2 51794  53.2174   5.4969 0001169  87.1221 111.7146 15.64992743  3690,6751.397,92.013,374.051,372.472,0.0
51794.0,STARLINK-3573,PAYLOAD,2022-03-25 22:00:01,15.64484116,0.0001171,53.2176,3.871,89.9769,187.6791,-0.0079673,-0.00716303,0.0,0 STARLINK-3573,1 51794U 22017AC  22084.91668981 -.00716303  00000-0 -79673-2 0  9998,2 51794  53.2176   3.8710 0001171  89.9769 187.6791 15.64484116  3742,6752.86,92.043,375.516,373.934,0.0
51794.0,STARLINK-3573,PAYLOAD,2022-03-26 04:00:00,15.64101143,0.0001185,53.2175,2.6532,99.2294,147.0248,-0.0080734,-0.00714962,0.0,0 STARLINK-3573,1 51794U 22017AC  22085.16667824 -.00714962  00000-0 -80734-2 0  9990,2 51794  53.2175   2.6532 0001185  99.2294 147.0248 15.64101143  5714,6753.962,92.066,376.627,375.027,0.0
51794.0,STARLINK-3573,PAYLOAD,2022-03-26 14:00:01,15.6328576,9.58e-05,53.2178,0.6191,97.0548,336.3152,-0.0056103,-0.00494297,0.0,0 STARLINK-3573,1 51794U 22017AC  22085.58334491 -.00494297  00000-0 -56103-2 0  9996,2 51794  53.2178   0.6191 0000958  97.0548 336.3152 15.63285760  3667,6756.31,92.114,378.823,377.528,0.0
51794.0,STARLINK-3573,PAYLOAD,2022-03-26 22:00:00,15.62953383,0.0001207,53.2175,358.9988,78.7465,71.4329,-0.0084444999999999,-0.00714611,0.0,0 STARLINK-3573,1 51794U 22017AC  22085.91667824 -.00714611  00000-0 -84445-2 0  9997,2 51794  53.2175 358.9988 0001207  78.7465  71.4329 15.62953383  3721,6757.268,92.133,379.949,378.318,0.0
51794.0,STARLINK-3573,PAYLOAD,2022-03-27 04:00:00,15.62568428,0.0001126,53.2177,357.7835,88.4346,29.0304,-0.0085218,-0.0071064,0.0,0 STARLINK-3573,1 51794U 22017AC  22086.16667824 -.00710640  00000-0 -85218-2 0  9992,2 51794  53.2177 357.7835 0001126  88.4346  29.0304 15.62568428  5879,6758.378000000002,92.156,381.004,379.482,0.0
51794.0,STARLINK-3573,PAYLOAD,2022-03-27 14:00:01,15.6193209,0.0001085,53.2176,355.7556,92.1648,210.0106,-0.008757,-0.0071212,0.0,0 STARLINK-3573,1 51794U 22017AC  22086.58334491 -.00712120  00000-0 -87570-2 0  9997,2 51794  53.2176 355.7556 0001085  92.1648 210.0106 15.61932090  3708,6760.2130000000025,92.194,382.812,381.345,0.0
51794.0,STARLINK-3573,PAYLOAD,2022-03-27 22:00:01,15.61424946,0.0001065,53.2177,354.1376,73.0527,304.2644,-0.0089962,-0.00716812,0.0,0 STARLINK-3573,1 51794U 22017AC  22086.91668981 -.00716812  00000-0 -89962-2 0  9997,2 51794  53.2177 354.1376 0001065  73.0527 304.2644 15.61424946  3691,6761.677,92.223,384.262,382.822,0.0
